{
  "type": "FeatureCollection",
  "features": [
    {
      "type": "Feature",
      "properties": {
        "norad_id": 22490,
        "name": "SCD 1",
        "group": "resource",
        "lat": -2.4912510482392536,
        "lon": -159.15960430401606,
        "alt_km": 739.5195807085793,
        "timestamp": "2025-12-24T11:32:59.660134+00:00",
        "meta_object_name": "SCD 1",
        "meta_object_id": "1993-009B",
        "meta_epoch": "2025-12-24T00:42:27.383040",
        "meta_mean_motion": 14.46006187,
        "meta_eccentricity": 0.0042181,
        "meta_inclination": 24.9677,
        "meta_ra_of_asc_node": 208.9929,
        "meta_arg_of_pericenter": 84.3054,
        "meta_mean_anomaly": 73.8287,
        "meta_ephemeris_type": 0,
        "meta_classification_type": "U",
        "meta_norad_cat_id": 22490,
        "meta_element_set_no": 999,
        "meta_rev_at_epoch": 73573,
        "meta_bstar": 7.7315e-05,
        "meta_mean_motion_dot": 4.68e-06,
        "meta_mean_motion_ddot": 0,
        "tle_line1": "1 22490U 93009B   25358.02948360  .00000468  00000+0  77315-4 0  9997",
        "tle_line2": "2 22490  24.9677 208.9929 0042181  84.3054  73.8287 14.46006187735730"
      },
      "geometry": {
        "type": "Point",
        "coordinates": [
          -159.15960430401606,
          -2.4912510482392536
        ]
      }
    },
    {
      "type": "Feature",
      "properties": {
        "norad_id": 25397,
        "name": "TECHSAT 1B (GO-32)",
        "group": "resource",
        "lat": -42.42015617139984,
        "lon": 153.64448887206106,
        "alt_km": 818.3583949421136,
        "timestamp": "2025-12-24T11:32:59.660179+00:00",
        "meta_object_name": "TECHSAT 1B (GO-32)",
        "meta_object_id": "1998-043D",
        "meta_epoch": "2025-12-23T22:42:18.147168",
        "meta_mean_motion": 14.24380036,
        "meta_eccentricity": 0.0001695,
        "meta_inclination": 98.9932,
        "meta_ra_of_asc_node": 341.4173,
        "meta_arg_of_pericenter": 39.0327,
        "meta_mean_anomaly": 321.0973,
        "meta_ephemeris_type": 0,
        "meta_classification_type": "U",
        "meta_norad_cat_id": 25397,
        "meta_element_set_no": 999,
        "meta_rev_at_epoch": 42638,
        "meta_bstar": 5.343e-05,
        "meta_mean_motion_dot": 7.7e-07,
        "meta_mean_motion_ddot": 0,
        "tle_line1": "1 25397U 98043D   25357.94604337  .00000077  00000+0  53430-4 0  9990",
        "tle_line2": "2 25397  98.9932 341.4173 0001695  39.0327 321.0973 14.24380036426385"
      },
      "geometry": {
        "type": "Point",
        "coordinates": [
          153.64448887206106,
          -42.42015617139984
        ]
      }
    },
    {
      "type": "Feature",
      "properties": {
        "norad_id": 25504,
        "name": "SCD 2",
        "group": "resource",
        "lat": 0.7978026068818472,
        "lon": 71.21093004752672,
        "alt_km": 735.4308935470308,
        "timestamp": "2025-12-24T11:32:59.660196+00:00",
        "meta_object_name": "SCD 2",
        "meta_object_id": "1998-060A",
        "meta_epoch": "2025-12-23T23:01:37.909056",
        "meta_mean_motion": 14.4542914,
        "meta_eccentricity": 0.0017059,
        "meta_inclination": 24.9953,
        "meta_ra_of_asc_node": 72.7138,
        "meta_arg_of_pericenter": 71.7341,
        "meta_mean_anomaly": 89.7798,
        "meta_ephemeris_type": 0,
        "meta_classification_type": "U",
        "meta_norad_cat_id": 25504,
        "meta_element_set_no": 999,
        "meta_rev_at_epoch": 43494,
        "meta_bstar": 6.9047e-05,
        "meta_mean_motion_dot": 4.29e-06,
        "meta_mean_motion_ddot": 0,
        "tle_line1": "1 25504U 98060A   25357.95946654  .00000429  00000+0  69047-4 0  9993",
        "tle_line2": "2 25504  24.9953  72.7138 0017059  71.7341  89.7798 14.45429140434949"
      },
      "geometry": {
        "type": "Point",
        "coordinates": [
          71.21093004752672,
          0.7978026068818472
        ]
      }
    },
    {
      "type": "Feature",
      "properties": {
        "norad_id": 25757,
        "name": "DLR-TUBSAT",
        "group": "resource",
        "lat": -2.281248582202732,
        "lon": 163.0095637256028,
        "alt_km": 712.0872048645733,
        "timestamp": "2025-12-24T11:32:59.660209+00:00",
        "meta_object_name": "DLR-TUBSAT",
        "meta_object_id": "1999-029B",
        "meta_epoch": "2025-12-17T13:22:10.787520",
        "meta_mean_motion": 14.52359578,
        "meta_eccentricity": 0.00141996,
        "meta_inclination": 98.6566,
        "meta_ra_of_asc_node": 336.2196,
        "meta_arg_of_pericenter": 177.8976,
        "meta_mean_anomaly": 182.2281,
        "meta_ephemeris_type": 0,
        "meta_classification_type": "U",
        "meta_norad_cat_id": 25757,
        "meta_element_set_no": 999,
        "meta_rev_at_epoch": 40688,
        "meta_bstar": 3.7650132e-05,
        "meta_mean_motion_dot": 1.05e-06,
        "meta_mean_motion_ddot": 0,
        "tle_line1": "1 25757U 99029B   25351.55706930  .00000105  00000+0  37650-4 0  9996",
        "tle_line2": "2 25757  98.6566 336.2196 0014199 177.8976 182.2281 14.52359578406886"
      },
      "geometry": {
        "type": "Point",
        "coordinates": [
          163.0095637256028,
          -2.281248582202732
        ]
      }
    },
    {
      "type": "Feature",
      "properties": {
        "norad_id": 25994,
        "name": "TERRA",
        "group": "resource",
        "lat": -64.34546965559237,
        "lon": -147.23279634509987,
        "alt_km": 699.863210690738,
        "timestamp": "2025-12-24T11:32:59.660222+00:00",
        "meta_object_name": "TERRA",
        "meta_object_id": "1999-068A",
        "meta_epoch": "2025-12-24T02:28:24.140352",
        "meta_mean_motion": 14.60914122,
        "meta_eccentricity": 0.0003449,
        "meta_inclination": 97.9732,
        "meta_ra_of_asc_node": 49.3697,
        "meta_arg_of_pericenter": 72.0027,
        "meta_mean_anomaly": 345.6591,
        "meta_ephemeris_type": 0,
        "meta_classification_type": "U",
        "meta_norad_cat_id": 25994,
        "meta_element_set_no": 999,
        "meta_rev_at_epoch": 38404,
        "meta_bstar": 0.00010478,
        "meta_mean_motion_dot": 4.68e-06,
        "meta_mean_motion_ddot": 0,
        "tle_line1": "1 25994U 99068A   25358.10305718  .00000468  00000+0  10478-3 0  9999",
        "tle_line2": "2 25994  97.9732  49.3697 0003449  72.0027 345.6591 14.60914122384046"
      },
      "geometry": {
        "type": "Point",
        "coordinates": [
          -147.23279634509987,
          -64.34546965559237
        ]
      }
    },
    {
      "type": "Feature",
      "properties": {
        "norad_id": 27004,
        "name": "MAROC-TUBSAT",
        "group": "resource",
        "lat": 9.008319042834026,
        "lon": 165.5630377017093,
        "alt_km": 1011.1222230940893,
        "timestamp": "2025-12-24T11:32:59.660235+00:00",
        "meta_object_name": "MAROC-TUBSAT",
        "meta_object_id": "2001-056D",
        "meta_epoch": "2025-12-24T03:18:19.001088",
        "meta_mean_motion": 13.70253444,
        "meta_eccentricity": 0.0019245,
        "meta_inclination": 99.7916,
        "meta_ra_of_asc_node": 166.7824,
        "meta_arg_of_pericenter": 229.9491,
        "meta_mean_anomaly": 245.4589,
        "meta_ephemeris_type": 0,
        "meta_classification_type": "U",
        "meta_norad_cat_id": 27004,
        "meta_element_set_no": 999,
        "meta_rev_at_epoch": 20221,
        "meta_bstar": 2.1662e-05,
        "meta_mean_motion_dot": -2.8e-07,
        "meta_mean_motion_ddot": 0,
        "tle_line1": "1 27004U 01056D   25358.13771992 -.00000028  00000+0  21662-4 0  9998",
        "tle_line2": "2 27004  99.7916 166.7824 0019245 229.9491 245.4589 13.70253444202214"
      },
      "geometry": {
        "type": "Point",
        "coordinates": [
          165.5630377017093,
          9.008319042834026
        ]
      }
    },
    {
      "type": "Feature",
      "properties": {
        "norad_id": 27424,
        "name": "AQUA",
        "group": "resource",
        "lat": 20.20296503024612,
        "lon": 142.67107308976472,
        "alt_km": 686.661383747065,
        "timestamp": "2025-12-24T11:32:59.660247+00:00",
        "meta_object_name": "AQUA",
        "meta_object_id": "2002-022A",
        "meta_epoch": "2025-12-23T20:08:03.450912",
        "meta_mean_motion": 14.61824731,
        "meta_eccentricity": 0.00015094,
        "meta_inclination": 98.4053,
        "meta_ra_of_asc_node": 318.8992,
        "meta_arg_of_pericenter": 108.9448,
        "meta_mean_anomaly": 272.2576,
        "meta_ephemeris_type": 0,
        "meta_classification_type": "U",
        "meta_norad_cat_id": 27424,
        "meta_element_set_no": 999,
        "meta_rev_at_epoch": 25765,
        "meta_bstar": 0.00020597954,
        "meta_mean_motion_dot": 9.8e-06,
        "meta_mean_motion_ddot": 0,
        "tle_line1": "1 27424U 02022A   25357.83892883  .00000980  00000+0  20598-3 0  9999",
        "tle_line2": "2 27424  98.4053 318.8992 0001509 108.9448 272.2576 14.61824731257652"
      },
      "geometry": {
        "type": "Point",
        "coordinates": [
          142.67107308976472,
          20.20296503024612
        ]
      }
    }
  ]
}